{"type": "FeatureCollection", "features": [ {"type": "Feature", "properties": {"norad_id": 35888, "name": "COSMOS 2251 DEB", "group": "cosmos-2251-debris", "lat": -30.049868923402535, "lon": 178.7472675680838, "alt_km": 704.5790921122343, "timestamp": "2025-12-16T15:45:51.442678+00:00", "meta": {"OBJECT_NAME": "COSMOS 2251 DEB", "OBJECT_ID": "1993-036AUB", "EPOCH": "2025-12-13T17:39:16.507872", "MEAN_MOTION": 14.58323448, "ECCENTRICITY": 0.00481838, "INCLINATION": 74.0339, "RA_OF_ASC_NODE": 354.7717, "ARG_OF_PERICENTER": 126.5849, "MEAN_ANOMALY": 233.9764, "EPHEMERIS_TYPE": 0, "CLASSIFICATION_TYPE": "U", "NORAD_CAT_ID": 35888, "ELEMENT_SET_NO": 999, "REV_AT_EPOCH": 86288, "BSTAR": 0.00051301683, "MEAN_MOTION_DOT": 2.383e-05, "MEAN_MOTION_DDOT": 0}, "tle": {"line1": "1 35888U 93036AUB 25347.73560773  .00002383  00000+0  51302-3 0  9991", "line2": "2 35888  74.0339 354.7717 0048183 126.5849 233.9764 14.58323448862881"}}, "geometry": {"type": "Point", "coordinates": [178.7472675680838, -30.049868923402535]}}, {"type": "Feature", "properties": {"norad_id": 35890, "name": "COSMOS 2251 DEB", "group": "cosmos-2251-debris", "lat": -57.17936710405653, "lon": 81.74583882934967, "alt_km": 725.6690024246082, "timestamp": "2025-12-16T15:45:51.442688+00:00", "meta": {"OBJECT_NAME": "COSMOS 2251 DEB", "OBJECT_ID": "1993-036AUD", "EPOCH": "2025-12-14T23:07:29.810208", "MEAN_MOTION": 14.57520492, "ECCENTRICITY": 0.00538424, "INCLINATION": 73.9366, "RA_OF_ASC_NODE": 238.4477, "ARG_OF_PERICENTER": 2.6653, "MEAN_ANOMALY": 357.4787, "EPHEMERIS_TYPE": 0, "CLASSIFICATION_TYPE": "U", "NORAD_CAT_ID": 35890, "ELEMENT_SET_NO": 999, "REV_AT_EPOCH": 65183, "BSTAR": 0.0010358067, "MEAN_MOTION_DOT": 4.776e-05, "MEAN_MOTION_DDOT": 0}, "tle": {"line1": "1 35890U 93036AUD 25348.96353947  .00004776  00000+0  10358-2 0  9996", "line2": "2 35890  73.9366 238.4477 0053842   2.6653 357.4787 14.57520492651833"}}, "geometry": {"type": "Point", "coordinates": [81.74583882934967, -57.17936710405653]}}, {"type": "Feature", "properties": {"norad_id": 35891, "name": "COSMOS 2251 DEB", "group": "cosmos-2251-debris", "lat": 49.57572222648217, "lon": -114.2339789268354, "alt_km": 458.9242692966709, "timestamp": "2025-12-16T15:45:51.442697+00:00", "meta": {"OBJECT_NAME": "COSMOS 2251 DEB", "OBJECT_ID": "1993-036AUE", "EPOCH": "2025-12-15T00:03:56.102688", "MEAN_MOTION": 15.335426, "ECCENTRICITY": 0.00432858, "INCLINATION": 73.9883, "RA_OF_ASC_NODE": 89.017, "ARG_OF_PERICENTER": 219.4473, "MEAN_ANOMALY": 140.3579, "EPHEMERIS_TYPE": 0, "CLASSIFICATION_TYPE": "U", "NORAD_CAT_ID": 35891, "ELEMENT_SET_NO": 999, "REV_AT_EPOCH": 67255, "BSTAR": 0.00088892356, "MEAN_MOTION_DOT": 0.00029776, "MEAN_MOTION_DDOT": 0}, "tle": {"line1": "1 35891U 93036AUE 25349.00273267  .00029776  00000+0  88892-3 0  9995", "line2": "2 35891  73.9883  89.0170 0043285 219.4473 140.3579 15.33542600672556"}}, "geometry": {"type": "Point", "coordinates": [-114.2339789268354, 49.57572222648217]}}, {"type": "Feature", "properties": {"norad_id": 35895, "name": "COSMOS 2251 DEB", "group": "cosmos-2251-debris", "lat": 22.195466051577743, "lon": -12.425879449290917, "alt_km": 803.0061548768226, "timestamp": "2025-12-16T15:45:51.442708+00:00", "meta": {"OBJECT_NAME": "COSMOS 2251 DEB", "OBJECT_ID": "1993-036AUJ", "EPOCH": "2025-12-11T07:10:31.732032", "MEAN_MOTION": 14.01513994, "ECCENTRICITY": 0.01987879, "INCLINATION": 74.0502, "RA_OF_ASC_NODE": 350.1634, "ARG_OF_PERICENTER": 88.7843, "MEAN_ANOMALY": 273.6056, "EPHEMERIS_TYPE": 0, "CLASSIFICATION_TYPE": "U", "NORAD_CAT_ID": 35895, "ELEMENT_SET_NO": 999, "REV_AT_EPOCH": 58992, "BSTAR": 0.0020881347, "MEAN_MOTION_DOT": 3.73e-05, "MEAN_MOTION_DDOT": 0}, "tle": {"line1": "1 35895U 93036AUJ 25345.29897838  .00003730  00000+0  20881-2 0  9997", "line2": "2 35895  74.0502 350.1634 0198787  88.7843 273.6056 14.01513994589929"}}, "geometry": {"type": "Point", "coordinates": [-12.425879449290917, 22.195466051577743]}}, {"type": "Feature", "properties": {"norad_id": 35898, "name": "COSMOS 2251 DEB", "group": "cosmos-2251-debris", "lat": 53.0768019479386, "lon": 87.07940053508287, "alt_km": 543.2055816445518, "timestamp": "2025-12-16T15:45:51.442717+00:00", "meta": {"OBJECT_NAME": "COSMOS 2251 DEB", "OBJECT_ID": "1993-036AUM", "EPOCH": "2025-12-11T03:33:58.696128", "MEAN_MOTION": 14.94658859, "ECCENTRICITY": 0.00792199, "INCLINATION": 73.9916, "RA_OF_ASC_NODE": 300.6702, "ARG_OF_PERICENTER": 84.5945, "MEAN_ANOMALY": 290.8859, "EPHEMERIS_TYPE": 0, "CLASSIFICATION_TYPE": "U", "NORAD_CAT_ID": 35898, "ELEMENT_SET_NO": 999, "REV_AT_EPOCH": 66786, "BSTAR": 0.001087469, "MEAN_MOTION_DOT": 0.00012532, "MEAN_MOTION_DDOT": 0}, "tle": {"line1": "1 35898U 93036AUM 25345.14859602  .00012532  00000+0  10875-2 0  9993", "line2": "2 35898  73.9916 300.6702 0079219  84.5945 290.8859 14.94658859667864"}}, "geometry": {"type": "Point", "coordinates": [87.07940053508287, 53.0768019479386]}}, {"type": "Feature", "properties": {"norad_id": 35901, "name": "COSMOS 2251 DEB", "group": "cosmos-2251-debris", "lat": -54.31514896284769, "lon": -8.724857900892102, "alt_km": 547.4662306047967, "timestamp": "2025-12-16T15:45:51.442728+00:00", "meta": {"OBJECT_NAME": "COSMOS 2251 DEB", "OBJECT_ID": "1993-036AUQ", "EPOCH": "2025-12-15T20:06:01.289952", "MEAN_MOTION": 15.07340921, "ECCENTRICITY": 0.00072982, "INCLINATION": 74.0115, "RA_OF_ASC_NODE": 16.4921, "ARG_OF_PERICENTER": 352.2547, "MEAN_ANOMALY": 186.0014, "EPHEMERIS_TYPE": 0, "CLASSIFICATION_TYPE": "U", "NORAD_CAT_ID": 35901, "ELEMENT_SET_NO": 999, "REV_AT_EPOCH": 86173, "BSTAR": 0.0020140959, "MEAN_MOTION_DOT": 0.00030555, "MEAN_MOTION_DDOT": 0}, "tle": {"line1": "1 35901U 93036AUQ 25349.83751493  .00030555  00000+0  20141-2 0  9999", "line2": "2 35901  74.0115  16.4921 0007298 352.2547 186.0014 15.07340921861732"}}, "geometry": {"type": "Point", "coordinates": [-8.724857900892102, -54.31514896284769]}}, {"type": "Feature", "properties": {"norad_id": 35902, "name": "COSMOS 2251 DEB", "group": "cosmos-2251-debris", "lat": 2.847027499855234, "lon": 46.6565115546795, "alt_km": 874.7192976217639, "timestamp": "2025-12-16T15:45:51.442737+00:00", "meta": {"OBJECT_NAME": "COSMOS 2251 DEB", "OBJECT_ID": "1993-036AUR", "EPOCH": "2025-12-12T01:33:56.017152", "MEAN_MOTION": 14.26898947, "ECCENTRICITY": 0.01020569, "INCLINATION": 73.9828, "RA_OF_ASC_NODE": 235.8058, "ARG_OF_PERICENTER": 350.6999, "MEAN_ANOMALY": 9.2255, "EPHEMERIS_TYPE": 0, "CLASSIFICATION_TYPE": "U", "NORAD_CAT_ID": 35902, "ELEMENT_SET_NO": 999, "REV_AT_EPOCH": 61120, "BSTAR": 0.0016300387, "MEAN_MOTION_DOT": 4.159e-05, "MEAN_MOTION_DDOT": 0}, "tle": {"line1": "1 35902U 93036AUR 25346.06523168  .00004159  00000+0  16300-2 0  9991", "line2": "2 35902  73.9828 235.8058 0102056 350.6999   9.2255 14.26898947611205"}}, "geometry": {"type": "Point", "coordinates": [46.6565115546795, 2.847027499855234]}}, {"type": "Feature", "properties": {"norad_id": 35905, "name": "COSMOS 2251 DEB", "group": "cosmos-2251-debris", "lat": 62.08612416970913, "lon": -124.42230655161792, "alt_km": 614.7360191043344, "timestamp": "2025-12-16T15:45:51.442748+00:00", "meta": {"OBJECT_NAME": "COSMOS 2251 DEB", "OBJECT_ID": "1993-036AUU", "EPOCH": "2025-12-15T07:25:55.531200", "MEAN_MOTION": 14.99062217, "ECCENTRICITY": 0.00907412, "INCLINATION": 74.032, "RA_OF_ASC_NODE": 205.5952, "ARG_OF_PERICENTER": 285.0687, "MEAN_ANOMALY": 74.0472, "EPHEMERIS_TYPE": 0, "CLASSIFICATION_TYPE": "U", "NORAD_CAT_ID": 35905, "ELEMENT_SET_NO": 999, "REV_AT_EPOCH": 88621, "BSTAR": 0.0003271254, "MEAN_MOTION_DOT": 4.283e-05, "MEAN_MOTION_DDOT": 0}, "tle": {"line1": "1 35905U 93036AUU 25349.30967050  .00004283  00000+0  32713-3 0  9991", "line2": "2 35905  74.0320 205.5952 0090741 285.0687  74.0472 14.99062217886215"}}, "geometry": {"type": "Point", "coordinates": [-124.42230655161792, 62.08612416970913]}}, {"type": "Feature", "properties": {"norad_id": 35959, "name": "COSMOS 2251 DEB", "group": "cosmos-2251-debris", "lat": 3.259667728198384, "lon": -54.17256913901859, "alt_km": 765.6096812191072, "timestamp": "2025-12-16T15:45:51.442758+00:00", "meta": {"OBJECT_NAME": "COSMOS 2251 DEB", "OBJECT_ID": "1993-036AUZ", "EPOCH": "2025-12-15T21:19:58.666080", "MEAN_MOTION": 14.34138332, "ECCENTRICITY": 0.002165, "INCLINATION": 74.0326, "RA_OF_ASC_NODE": 306.2984, "ARG_OF_PERICENTER": 25.8592, "MEAN_ANOMALY": 334.3636, "EPHEMERIS_TYPE": 0, "CLASSIFICATION_TYPE": "U", "NORAD_CAT_ID": 35959, "ELEMENT_SET_NO": 999, "REV_AT_EPOCH": 84973, "BSTAR": 0.000121627, "MEAN_MOTION_DOT": 3.15e-06, "MEAN_MOTION_DDOT": 0}, "tle": {"line1": "1 35959U 93036AUZ 25349.88887345  .00000315  00000+0  12163-3 0  9990", "line2": "2 35959  74.0326 306.2984 0021650  25.8592 334.3636 14.34138332849733"}}, "geometry": {"type": "Point", "coordinates": [-54.17256913901859, 3.259667728198384]}}, {"type": "Feature", "properties": {"norad_id": 35961, "name": "COSMOS 2251 DEB", "group": "cosmos-2251-debris", "lat": -66.0603359512854, "lon": 57.79211844789279, "alt_km": 954.0126867490908, "timestamp": "2025-12-16T15:45:51.442767+00:00", "meta": {"OBJECT_NAME": "COSMOS 2251 DEB", "OBJECT_ID": "1993-036AVB", "EPOCH": "2025-12-13T08:00:02.001600", "MEAN_MOTION": 14.05391131, "ECCENTRICITY": 0.01919644, "INCLINATION": 73.9252, "RA_OF_ASC_NODE": 203.1346, "ARG_OF_PERICENTER": 136.4306, "MEAN_ANOMALY": 225.2177, "EPHEMERIS_TYPE": 0, "CLASSIFICATION_TYPE": "U", "NORAD_CAT_ID": 35961, "ELEMENT_SET_NO": 999, "REV_AT_EPOCH": 62690, "BSTAR": 0.0012957736, "MEAN_MOTION_DOT": 2.456e-05, "MEAN_MOTION_DDOT": 0}, "tle": {"line1": "1 35961U 93036AVB 25347.33335650  .00002456  00000+0  12958-2 0  9997", "line2": "2 35961  73.9252 203.1346 0191964 136.4306 225.2177 14.05391131626903"}}, "geometry": {"type": "Point", "coordinates": [57.79211844789279, -66.0603359512854]}}]}